NORAD_CAT_ID,OBJECT_NAME,OBJECT_TYPE,EPOCH,MEAN_MOTION,ECCENTRICITY,INCLINATION,RA_OF_ASC_NODE,ARG_OF_PERICENTER,MEAN_ANOMALY,BSTAR,MEAN_MOTION_DOT,MEAN_MOTION_DDOT,TLE_LINE0,TLE_LINE1,TLE_LINE2,SEMIMAJOR_AXIS,PERIOD,APOGEE,PERIGEE,DECAYED
52485.0,STARLINK-3913,PAYLOAD,2024-04-26 13:40:33,15.08845604,0.0001134,53.2165,231.2792,96.9522,263.1599,0.001161,0.0001824,0.0,0 STARLINK-3913,1 52485U 22049AL  24117.56983252  .00018240  00000-0  11610-2 0  9992,2 52485  53.2165 231.2792 0001134  96.9522 263.1599 15.08845604109574,6917.863,95.437,540.513,538.944,0.0
52485.0,STARLINK-3913,PAYLOAD,2024-04-26 15:15:56,15.08859415,0.0001357,53.2165,230.9813,92.4168,267.6979,0.0018242,0.00028879,0.0,0 STARLINK-3913,1 52485U 22049AL  24117.63607121  .00028879  00000-0  18242-2 0  9995,2 52485  53.2165 230.9813 0001357  92.4168 267.6979 15.08859415109585,6917.821,95.436,540.625,538.747,0.0
52485.0,STARLINK-3913,PAYLOAD,2024-04-27 00:48:14,15.08865436,0.0001646,53.2163,229.1948,73.9241,286.1933,0.0011021,0.00017308,0.0,0 STARLINK-3913,1 52485U 22049AL  24118.03350582  .00017308  00000-0  11021-2 0  9999,2 52485  53.2163 229.1948 0001646  73.9241 286.1933 15.08865436109642,6917.803,95.436,540.806,538.529,0.0
52485.0,STARLINK-3913,PAYLOAD,2024-04-27 13:31:19,15.08855354,9.63e-05,53.2166,226.8157,72.8432,287.2666,0.00025823,3.826e-05,0.0,0 STARLINK-3913,1 52485U 22049AL  24118.56341962  .00003826  00000-0  25823-3 0  9995,2 52485  53.2166 226.8157 0000963  72.8432 287.2666 15.08855354109724,6917.833,95.437,540.365,539.032,0.0
52485.0,STARLINK-3913,PAYLOAD,2024-04-27 16:42:05,15.08873834,0.000131,53.2172,226.2191,80.9126,279.2014,0.00064706,0.00010034,0.0,0 STARLINK-3913,1 52485U 22049AL  24118.69589273  .00010034  00000-0  64706-3 0  9990,2 52485  53.2172 226.2191 0001310  80.9126 279.2014 15.08873834109743,6917.777,95.435,540.548,538.736,0.0
52485.0,STARLINK-3913,PAYLOAD,2024-04-28 13:22:07,15.08815937,0.0001388,53.2169,222.3544,98.1282,261.9867,-0.00052002,-8.549e-05,0.0,0 STARLINK-3913,1 52485U 22049AL  24119.55703555 -.00008549  00000-0 -52002-3 0  9993,2 52485  53.2169 222.3544 0001388  98.1282 261.9867 15.08815937109875,6917.954,95.439,540.779,538.859,0.0
52485.0,STARLINK-3913,PAYLOAD,2024-04-29 13:12:55,15.08842281,0.0001302,53.2169,217.8958,89.8948,270.2194,0.0010244,0.00016054,0.0,0 STARLINK-3913,1 52485U 22049AL  24120.55064383  .00016054  00000-0  10244-2 0  9993,2 52485  53.2169 217.8958 0001302  89.8948 270.2194 15.08842281110022,6917.873,95.437,540.639,538.838,0.0
52485.0,STARLINK-3913,PAYLOAD,2024-04-30 11:28:19,15.08852623,0.0001245,53.2166,213.7315,85.3564,274.757,0.00036079,5.461e-05,0.0,0 STARLINK-3913,1 52485U 22049AL  24121.47799910  .00005461  00000-0  36079-3 0  9991,2 52485  53.2166 213.7315 0001245  85.3564 274.7570 15.08852623110165,6917.842,95.437,540.568,538.846,0.0
52485.0,STARLINK-3913,PAYLOAD,2024-04-30 22:36:00,15.08853676,0.0001199,53.2162,211.6525,84.1464,275.9664,0.0002493,3.683e-05,0.0,0 STARLINK-3913,1 52485U 22049AL  24121.94167575  .00003683  00000-0  24930-3 0  9996,2 52485  53.2162 211.6525 0001199  84.1464 275.9664 15.08853676110071,6917.839,95.437,540.533,538.874,0.0
52485.0,STARLINK-3913,PAYLOAD,2024-05-01 12:54:29,15.08841386,0.0001325,53.2178,208.9771,86.2368,273.8775,-5.6999e-05,-1.195e-05,0.0,0 STARLINK-3913,1 52485U 22049AL  24122.53783772 -.00001195  00000-0 -56999-4 0  9994,2 52485  53.2178 208.9771 0001325  86.2368 273.8775 15.08841386110320,6917.876,95.437,540.658,538.825,0.0
52485.0,STARLINK-3913,PAYLOAD,2024-05-02 12:45:16,15.08841137,0.0001654,53.2184,204.5175,103.7266,256.391,1.4559e-05,-5.6e-07,0.0,0 STARLINK-3913,1 52485U 22049AL  24123.53144308 -.00000056  00000-0  14559-4 0  9991,2 52485  53.2184 204.5175 0001654 103.7266 256.3910 15.08841137110314,6917.877,95.437,540.886,538.598,0.0
52485.0,STARLINK-3913,PAYLOAD,2024-05-03 12:36:02,15.08856708,0.0001425,53.2171,200.0559,82.573,277.5424,0.00034624,5.229e-05,0.0,0 STARLINK-3913,1 52485U 22049AL  24124.52502865  .00005229  00000-0  34624-3 0  9997,2 52485  53.2171 200.0559 0001425  82.5730 277.5424 15.08856708110622,6917.829,95.436,540.68,538.709,0.0
52485.0,STARLINK-3913,PAYLOAD,2024-05-03 14:11:25,15.08858497,0.0001493,53.2171,199.7568,75.581,284.5348,0.00037956,5.761e-05,0.0,0 STARLINK-3913,1 52485U 22049AL  24124.59126791  .00005761  00000-0  37956-3 0  9996,2 52485  53.2171 199.7568 0001493  75.5810 284.5348 15.08858497110475,6917.824,95.436,540.722,538.656,0.0
52485.0,STARLINK-3913,PAYLOAD,2024-05-03 22:08:21,15.08841205,0.000139,53.2157,198.2707,85.4128,274.7023,0.0001017,1.331e-05,0.0,0 STARLINK-3913,1 52485U 22049AL  24124.92247616  .00001331  00000-0  10170-3 0  9991,2 52485  53.2157 198.2707 0001390  85.4128 274.7023 15.08841205110522,6917.877,95.437,540.703,538.78,0.0
52485.0,STARLINK-3913,PAYLOAD,2024-05-04 04:29:55,15.08832284,0.0001762,53.2153,197.0826,87.3544,272.765,-7.2393e-06,-4.03e-06,0.0,0 STARLINK-3913,1 52485U 22049AL  24125.18744422 -.00000403  00000-0 -72393-5 0  9995,2 52485  53.2153 197.0826 0001762  87.3544 272.7650 15.08832284110726,6917.904,95.438,540.988,538.55,0.0
52485.0,STARLINK-3913,PAYLOAD,2024-05-05 04:20:40,15.08875448,8.1e-05,53.2159,192.6197,124.1692,235.9377,0.0013115,0.00020666,0.0,0 STARLINK-3913,1 52485U 22049AL  24126.18102719  .00020666  00000-0  13115-2 0  9998,2 52485  53.2159 192.6197 0000810 124.1692 235.9377 15.08875448110873,6917.772,95.435,540.197,539.077,0.0
52485.0,STARLINK-3913,PAYLOAD,2024-05-05 10:42:13,15.08863781,8.75e-05,53.2161,191.4298,52.9731,307.1341,0.0010121,0.00015867,0.0,0 STARLINK-3913,1 52485U 22049AL  24126.44599157  .00015867  00000-0  10121-2 0  9994,2 52485  53.2161 191.4298 0000875  52.9731 307.1341 15.08863781110913,6917.808,95.436,540.278,539.067,0.0
52485.0,STARLINK-3913,PAYLOAD,2024-05-05 21:49:55,15.08844597,0.0001553,53.2149,189.3531,61.5899,298.525,6.7678e-05,7.89e-06,0.0,0 STARLINK-3913,1 52485U 22049AL  24126.90967424  .00000789  00000-0  67678-4 0  9999,2 52485  53.2149 189.3531 0001553  61.5899 298.5250 15.08844597110826,6917.866,95.437,540.806,538.657,0.0
52485.0,STARLINK-3913,PAYLOAD,2024-05-06 04:11:28,15.08844643,0.0001432,53.2156,188.16,89.4967,270.6189,0.00024651,3.638e-05,0.0,0 STARLINK-3913,1 52485U 22049AL  24127.17463639  .00003638  00000-0  24651-3 0  9997,2 52485  53.2156 188.1600 0001432  89.4967 270.6189 15.08844643111026,6917.866,95.437,540.722,538.741,0.0
52485.0,STARLINK-3913,PAYLOAD,2024-05-06 10:33:00,15.08847371,0.0001388,53.2158,186.9704,89.6593,270.4558,0.00022199,3.247e-05,0.0,0 STARLINK-3913,1 52485U 22049AL  24127.43959449  .00003247  00000-0  22199-3 0  9996,2 52485  53.2158 186.9704 0001388  89.6593 270.4558 15.08847371110901,6917.858,95.437,540.683,538.763,0.0
52485.0,STARLINK-3913,PAYLOAD,2024-05-07 04:02:15,15.08840495,0.0001407,53.216,183.7006,87.784,272.3314,0.00012355,1.679e-05,0.0,0 STARLINK-3913,1 52485U 22049AL  24128.16823806  .00001679  00000-0  12355-3 0  9994,2 52485  53.2160 183.7006 0001407  87.7840 272.3314 15.08840495111171,6917.879,95.438,540.717,538.771,0.0
52485.0,STARLINK-3913,PAYLOAD,2024-05-07 10:23:48,15.0884126,0.0001437,53.2162,182.5093,93.5693,266.5464,3.9535e-05,3.41e-06,0.0,0 STARLINK-3913,1 52485U 22049AL  24128.43319768  .00000341  00000-0  39535-4 0  9996,2 52485  53.2162 182.5093 0001437  93.5693 266.5464 15.08841260111059,6917.877,95.437,540.736,538.747,0.0
52485.0,STARLINK-3913,PAYLOAD,2024-05-08 03:53:03,15.08839922,0.000144,53.2165,179.2386,90.8499,269.2658,0.00020614,2.994e-05,0.0,0 STARLINK-3913,1 52485U 22049AL  24129.16184191  .00002994  00000-0  20614-3 0  9990,2 52485  53.2165 179.2386 0001440  90.8499 269.2658 15.08839922111325,6917.881,95.438,540.742,538.749,0.0
52485.0,STARLINK-3913,PAYLOAD,2024-05-08 10:14:35,15.08844816,0.0001406,53.2163,178.0495,90.9289,269.1865,0.00024251,3.574e-05,0.0,0 STARLINK-3913,1 52485U 22049AL  24129.42679953  .00003574  00000-0  24251-3 0  9990,2 52485  53.2163 178.0495 0001406  90.9289 269.1865 15.08844816111205,6917.866,95.437,540.703,538.758,0.0
52485.0,STARLINK-3913,PAYLOAD,2024-05-08 19:46:54,15.08844325,0.0001256,53.2148,176.2661,88.8829,271.2307,0.00014698,2.052e-05,0.0,0 STARLINK-3913,1 52485U 22049AL  24129.82423889  .00002052  00000-0  14698-3 0  9993,2 52485  53.2148 176.2661 0001256  88.8829 271.2307 15.08844325111268,6917.867,95.437,540.601,538.863,0.0
52485.0,STARLINK-3913,PAYLOAD,2024-05-09 10:05:22,15.08836151,0.0001408,53.2162,173.5907,93.7619,266.3534,7.6376e-05,9.28e-06,0.0,0 STARLINK-3913,1 52485U 22049AL  24130.42040489  .00000928  00000-0  76376-4 0  9994,2 52485  53.2162 173.5907 0001408  93.7619 266.3534 15.08836151111511,6917.892,95.438,540.731,538.783,0.0
52485.0,STARLINK-3913,PAYLOAD,2024-05-10 11:31:32,15.08847386,0.0001431,53.216,168.8331,96.0727,264.0428,0.00015341,2.155e-05,0.0,0 STARLINK-3913,1 52485U 22049AL  24131.48024003  .00002155  00000-0  15341-3 0  9993,2 52485  53.2160 168.8331 0001431  96.0727 264.0428 15.08847386111675,6917.858,95.437,540.713,538.733,0.0
52485.0,STARLINK-3913,PAYLOAD,2024-05-10 19:28:28,15.08838124,0.0001605,53.2154,167.3444,88.9771,271.1404,3.7249e-05,3.05e-06,0.0,0 STARLINK-3913,1 52485U 22049AL  24131.81144550  .00000305  00000-0  37249-4 0  9997,2 52485  53.2154 167.3444 0001605  88.9771 271.1404 15.08838124111728,6917.886,95.438,540.861,538.641,0.0
52485.0,STARLINK-3913,PAYLOAD,2024-05-11 08:11:33,15.08874029,0.0001707,53.2157,164.9674,91.2869,268.8318,0.00076833,0.00011972,0.0,0 STARLINK-3913,1 52485U 22049AL  24132.34135878  .00011972  00000-0  76833-3 0  9992,2 52485  53.2157 164.9674 0001707  91.2869 268.8318 15.08874029111807,6917.776,95.435,540.822,538.461,0.0
52485.0,STARLINK-3913,PAYLOAD,2024-05-11 19:19:15,15.08865691,0.0001906,53.2159,162.884,74.0228,286.0974,0.00071244,0.00011077,0.0,0 STARLINK-3913,1 52485U 22049AL  24132.80503479  .00011077  00000-0  71244-3 0  9996,2 52485  53.2159 162.8840 0001906  74.0228 286.0974 15.08865691111872,6917.802,95.436,540.985,538.348,0.0
